{
  "type": "FeatureCollection",
  "features": [
    {
      "type": "Feature",
      "properties": {
        "norad_id": 66975,
        "name": "STARLINK-35777",
        "group": "last-30-days",
        "lat": 3.735971684181585,
        "lon": -96.86081549123163,
        "alt_km": 378.61619516183964,
        "timestamp": "2025-12-25T20:42:37.410281+00:00",
        "meta_object_name": "STARLINK-35777",
        "meta_object_id": "2025-288S",
        "meta_epoch": "2025-12-25T06:00:04.000320",
        "meta_mean_motion": 15.65578568,
        "meta_eccentricity": 0.00015727,
        "meta_inclination": 43.0002,
        "meta_ra_of_asc_node": 90.8171,
        "meta_arg_of_pericenter": 266.5325,
        "meta_mean_anomaly": 52.3908,
        "meta_ephemeris_type": 0,
        "meta_classification_type": "U",
        "meta_norad_cat_id": 66975,
        "meta_element_set_no": 999,
        "meta_rev_at_epoch": 384,
        "meta_bstar": -0.021783034,
        "meta_mean_motion_dot": -0.01983805,
        "meta_mean_motion_ddot": 0,
        "tle_line1": "1 66975U 25288S   25359.25004630 -.01983805  00000+0 -21783-1 0  9999",
        "tle_line2": "2 66975  43.0002  90.8171 0001572 266.5325  52.3908 15.65578568  3842"
      },
      "geometry": {
        "type": "Point",
        "coordinates": [
          -96.86081549123163,
          3.735971684181585
        ]
      }
    },
    {
      "type": "Feature",
      "properties": {
        "norad_id": 66976,
        "name": "STARLINK-35772",
        "group": "last-30-days",
        "lat": 18.621652791918137,
        "lon": 109.61145932661992,
        "alt_km": 439.444568829962,
        "timestamp": "2025-12-25T20:42:37.410294+00:00",
        "meta_object_name": "STARLINK-35772",
        "meta_object_id": "2025-288T",
        "meta_epoch": "2025-12-25T06:00:04.000320",
        "meta_mean_motion": 15.4398209,
        "meta_eccentricity": 8.553e-05,
        "meta_inclination": 43.0003,
        "meta_ra_of_asc_node": 91.9561,
        "meta_arg_of_pericenter": 279.6965,
        "meta_mean_anomaly": 300.5383,
        "meta_ephemeris_type": 0,
        "meta_classification_type": "U",
        "meta_norad_cat_id": 66976,
        "meta_element_set_no": 999,
        "meta_rev_at_epoch": 384,
        "meta_bstar": -0.047911868,
        "meta_mean_motion_dot": -0.01992589,
        "meta_mean_motion_ddot": 0,
        "tle_line1": "1 66976U 25288T   25359.25004630 -.01992589  00000+0 -47912-1 0  9991",
        "tle_line2": "2 66976  43.0003  91.9561 0000855 279.6965 300.5383 15.43982090  3847"
      },
      "geometry": {
        "type": "Point",
        "coordinates": [
          109.61145932661992,
          18.621652791918137
        ]
      }
    },
    {
      "type": "Feature",
      "properties": {
        "norad_id": 66977,
        "name": "STARLINK-35770",
        "group": "last-30-days",
        "lat": 2.43111628339339,
        "lon": -95.45825840540799,
        "alt_km": 378.7487264088004,
        "timestamp": "2025-12-25T20:42:37.410304+00:00",
        "meta_object_name": "STARLINK-35770",
        "meta_object_id": "2025-288U",
        "meta_epoch": "2025-12-25T06:00:04.000320",
        "meta_mean_motion": 15.6557948,
        "meta_eccentricity": 0.00015725,
        "meta_inclination": 42.9999,
        "meta_ra_of_asc_node": 90.8129,
        "meta_arg_of_pericenter": 266.5547,
        "meta_mean_anomaly": 54.2852,
        "meta_ephemeris_type": 0,
        "meta_classification_type": "U",
        "meta_norad_cat_id": 66977,
        "meta_element_set_no": 999,
        "meta_rev_at_epoch": 384,
        "meta_bstar": -0.021795613,
        "meta_mean_motion_dot": -0.01984877,
        "meta_mean_motion_ddot": 0,
        "tle_line1": "1 66977U 25288U   25359.25004630 -.01984877  00000+0 -21796-1 0  9995",
        "tle_line2": "2 66977  42.9999  90.8129 0001572 266.5547  54.2852 15.65579480  3849"
      },
      "geometry": {
        "type": "Point",
        "coordinates": [
          -95.45825840540799,
          2.43111628339339
        ]
      }
    },
    {
      "type": "Feature",
      "properties": {
        "norad_id": 66978,
        "name": "STARLINK-35787",
        "group": "last-30-days",
        "lat": -1.488233817120056,
        "lon": -91.26407140317244,
        "alt_km": 379.15273569891633,
        "timestamp": "2025-12-25T20:42:37.410318+00:00",
        "meta_object_name": "STARLINK-35787",
        "meta_object_id": "2025-288V",
        "meta_epoch": "2025-12-25T06:00:04.000320",
        "meta_mean_motion": 15.65582779,
        "meta_eccentricity": 0.00015031,
        "meta_inclination": 43,
        "meta_ra_of_asc_node": 90.798,
        "meta_arg_of_pericenter": 267.2347,
        "meta_mean_anomaly": 59.3556,
        "meta_ephemeris_type": 0,
        "meta_classification_type": "U",
        "meta_norad_cat_id": 66978,
        "meta_element_set_no": 999,
        "meta_rev_at_epoch": 384,
        "meta_bstar": -0.021859339,
        "meta_mean_motion_dot": -0.01990158,
        "meta_mean_motion_ddot": 0,
        "tle_line1": "1 66978U 25288V   25359.25004630 -.01990158  00000+0 -21859-1 0  9995",
        "tle_line2": "2 66978  43.0000  90.7980 0001503 267.2347  59.3556 15.65582779  3841"
      },
      "geometry": {
        "type": "Point",
        "coordinates": [
          -91.26407140317244,
          -1.488233817120056
        ]
      }
    },
    {
      "type": "Feature",
      "properties": {
        "norad_id": 66979,
        "name": "STARLINK-36107",
        "group": "last-30-days",
        "lat": -2.795426111902494,
        "lon": -89.86277355144604,
        "alt_km": 379.35961927704193,
        "timestamp": "2025-12-25T20:42:37.410328+00:00",
        "meta_object_name": "STARLINK-36107",
        "meta_object_id": "2025-288W",
        "meta_epoch": "2025-12-25T06:00:04.000320",
        "meta_mean_motion": 15.65573884,
        "meta_eccentricity": 0.00015091,
        "meta_inclination": 43.0001,
        "meta_ra_of_asc_node": 90.7933,
        "meta_arg_of_pericenter": 270.8592,
        "meta_mean_anomaly": 57.653,
        "meta_ephemeris_type": 0,
        "meta_classification_type": "U",
        "meta_norad_cat_id": 66979,
        "meta_element_set_no": 999,
        "meta_rev_at_epoch": 384,
        "meta_bstar": -0.021737856,
        "meta_mean_motion_dot": -0.01979805,
        "meta_mean_motion_ddot": 0,
        "tle_line1": "1 66979U 25288W   25359.25004630 -.01979805  00000+0 -21738-1 0  9998",
        "tle_line2": "2 66979  43.0001  90.7933 0001509 270.8592  57.6530 15.65573884  3849"
      },
      "geometry": {
        "type": "Point",
        "coordinates": [
          -89.86277355144604,
          -2.795426111902494
        ]
      }
    },
    {
      "type": "Feature",
      "properties": {
        "norad_id": 66980,
        "name": "STARLINK-36086",
        "group": "last-30-days",
        "lat": -4.09894104861002,
        "lon": -88.46072099306653,
        "alt_km": 379.416100132481,
        "timestamp": "2025-12-25T20:42:37.410353+00:00",
        "meta_object_name": "STARLINK-36086",
        "meta_object_id": "2025-288X",
        "meta_epoch": "2025-12-25T06:00:04.000320",
        "meta_mean_motion": 15.65580767,
        "meta_eccentricity": 0.00015499,
        "meta_inclination": 43.0002,
        "meta_ra_of_asc_node": 90.7884,
        "meta_arg_of_pericenter": 268.6894,
        "meta_mean_anomaly": 61.7348,
        "meta_ephemeris_type": 0,
        "meta_classification_type": "U",
        "meta_norad_cat_id": 66980,
        "meta_element_set_no": 999,
        "meta_rev_at_epoch": 384,
        "meta_bstar": -0.021813484,
        "meta_mean_motion_dot": -0.01986381,
        "meta_mean_motion_ddot": 0,
        "tle_line1": "1 66980U 25288X   25359.25004630 -.01986381  00000+0 -21813-1 0  9991",
        "tle_line2": "2 66980  43.0002  90.7884 0001549 268.6894  61.7348 15.65580767  3842"
      },
      "geometry": {
        "type": "Point",
        "coordinates": [
          -88.46072099306653,
          -4.09894104861002
        ]
      }
    },
    {
      "type": "Feature",
      "properties": {
        "norad_id": 66981,
        "name": "STARLINK-36142",
        "group": "last-30-days",
        "lat": -5.401043203684708,
        "lon": -87.05288608251855,
        "alt_km": 379.5652013210056,
        "timestamp": "2025-12-25T20:42:37.410363+00:00",
        "meta_object_name": "STARLINK-36142",
        "meta_object_id": "2025-288Y",
        "meta_epoch": "2025-12-25T06:00:04.000320",
        "meta_mean_motion": 15.65575248,
        "meta_eccentricity": 0.00015088,
        "meta_inclination": 43.0001,
        "meta_ra_of_asc_node": 90.7835,
        "meta_arg_of_pericenter": 270.0459,
        "meta_mean_anomaly": 62.3005,
        "meta_ephemeris_type": 0,
        "meta_classification_type": "U",
        "meta_norad_cat_id": 66981,
        "meta_element_set_no": 999,
        "meta_rev_at_epoch": 384,
        "meta_bstar": -0.021761974,
        "meta_mean_motion_dot": -0.01981834,
        "meta_mean_motion_ddot": 0,
        "tle_line1": "1 66981U 25288Y   25359.25004630 -.01981834  00000+0 -21762-1 0  9993",
        "tle_line2": "2 66981  43.0001  90.7835 0001508 270.0459  62.3005 15.65575248  3842"
      },
      "geometry": {
        "type": "Point",
        "coordinates": [
          -87.05288608251855,
          -5.401043203684708
        ]
      }
    }
  ]
}